KUIPER-00112            
1 65150U 25171U   26027.85829784  .00009092  00000+0  12203-2 0  9990
2 65150  51.9037 336.1548 0000931  82.0448 278.0620 14.79924373 26870
KUIPER-00114            
1 65151U 25171V   26027.19514773  .00000949  00000+0  15366-3 0  9993
2 65151  51.9006 359.0926 0002526  37.0686 323.0451 14.79894920 26492
KUIPER-00115            
1 65152U 25171W   26027.60845523 -.00003802  00000+0 -46934-3 0  9998
2 65152  51.9034 349.7495 0001714  70.5958 289.5189 14.79982376 26669
KUIPER-00116            
1 65153U 25171X   26027.63688208  .00009519  00000+0  12750-2 0  9994
2 65153  51.9011 354.6654 0005604 329.5586  30.5051 14.79955857 26591
KUIPER-00118            
1 65154U 25171Y   26027.63408118  .00008917  00000+0  11956-2 0  9993
2 65154  51.9015 357.1329 0001295  47.2622 312.8449 14.79987187 26565
KUIPER-00119            
1 65155U 25171Z   26027.84919280  .00006937  00000+0  93429-3 0  9990
2 65155  51.9025 343.7568 0007770 355.1261   4.9625 14.80095744 26765
KUIPER-00120            
1 65762U 25217A   26027.56759258  .00003759  00000+0  56537-3 0  9999
2 65762  51.8965 234.4358 0003537 142.4092 217.7116 14.76476103 18655
KUIPER-00132            
1 65763U 25217B   26027.51592820  .00041052  00000+0  10652-2 0  9990
2 65763  51.8590 203.1723 0007850 167.6149 192.5032 15.38559317 19086
